[{"OBJECT_ID":"1992-093DS","OBJECT_NAME":"SL-16 DEB","NORAD_CAT_ID":"22425","OBJECT_TYPE":"DEBRIS","PERIOD":"103.328","INCLINATION":"71.1758","ECCENTRICITY":"0.01153080","MEAN_MOTION":"13.93618545","TLE_LINE1":"1 22425U 92093DS  21271.44868156  .00000074  00000-0  85070-4 0  9998","TLE_LINE2":"2 22425  71.1758  76.5678 0115308 297.2400  91.9715 13.93618545458337"},{"OBJECT_ID":"1992-093DT","OBJECT_NAME":"SL-16 DEB","NORAD_CAT_ID":"22426","OBJECT_TYPE":"DEBRIS","PERIOD":"101.440","INCLINATION":"71.3516","ECCENTRICITY":"0.01343810","MEAN_MOTION":"14.19553536","TLE_LINE1":"1 22426U 92093DT  21271.45015465  .00000242  00000-0  12390-3 0  9998","TLE_LINE2":"2 22426  71.3516 293.2727 0134381  94.7862  15.6228 14.19553536478004"},{"OBJECT_ID":"1992-093DX","OBJECT_NAME":"SL-16 DEB","NORAD_CAT_ID":"22430","OBJECT_TYPE":"DEBRIS","PERIOD":"103.238","INCLINATION":"71.2341","ECCENTRICITY":"0.01145770","MEAN_MOTION":"13.94829850","TLE_LINE1":"1 22430U 92093DX  21271.50364444  .00000079  00000-0  86161-4 0  9999","TLE_LINE2":"2 22430  71.2341  86.1582 0114577 126.0027 267.0487 13.94829850460164"},{"OBJECT_ID":"1992-093DZ","OBJECT_NAME":"SL-16 DEB","NORAD_CAT_ID":"22432","OBJECT_TYPE":"DEBRIS","PERIOD":"102.665","INCLINATION":"70.8338","ECCENTRICITY":"0.01067070","MEAN_MOTION":"14.02620236","TLE_LINE1":"1 22432U 92093DZ  21271.33072208  .00000448  00000-0  30551-3 0  9997","TLE_LINE2":"2 22432  70.8338 232.6337 0106707 349.9542 174.0320 14.02620236463946"},{"OBJECT_ID":"1992-093EA","OBJECT_NAME":"SL-16 DEB","NORAD_CAT_ID":"22433","OBJECT_TYPE":"DEBRIS","PERIOD":"99.805","INCLINATION":"71.1607","ECCENTRICITY":"0.00791610","MEAN_MOTION":"14.42810071","TLE_LINE1":"1 22433U 92093EA  21272.16998406  .00001891  00000-0  56051-3 0  9993","TLE_LINE2":"2 22433  71.1607 167.3706 0079161 157.6560 202.8060 14.42810071487164"},{"OBJECT_ID":"1992-093EC","OBJECT_NAME":"SL-16 DEB","NORAD_CAT_ID":"22435","OBJECT_TYPE":"DEBRIS","PERIOD":"99.734","INCLINATION":"71.3381","ECCENTRICITY":"0.00785200","MEAN_MOTION":"14.43835623","TLE_LINE1":"1 22435U 92093EC  21272.44357381  .00002204  00000-0  63705-3 0  9990","TLE_LINE2":"2 22435  71.3381  86.7945 0078520 345.2162  39.4303 14.43835623484822"},{"OBJECT_ID":"1992-093ED","OBJECT_NAME":"SL-16 DEB","NORAD_CAT_ID":"22436","OBJECT_TYPE":"DEBRIS","PERIOD":"98.790","INCLINATION":"71.5151","ECCENTRICITY":"0.00589200","MEAN_MOTION":"14.57636334","TLE_LINE1":"1 22436U 92093ED  21272.37601611  .00001234  00000-0  27584-3 0  9998","TLE_LINE2":"2 22436  71.5151  27.2627 0058920 192.2121 225.2100 14.57636334513167"},{"OBJECT_ID":"1992-093EE","OBJECT_NAME":"SL-16 DEB","NORAD_CAT_ID":"22437","OBJECT_TYPE":"DEBRIS","PERIOD":"99.882","INCLINATION":"71.3343","ECCENTRICITY":"0.00410130","MEAN_MOTION":"14.41702770","TLE_LINE1":"1 22437U 92093EE  21271.45512065  .00000553  00000-0  18254-3 0  9998","TLE_LINE2":"2 22437  71.3343 278.7533 0041013 180.6946 179.4144 14.41702770499666"},{"OBJECT_ID":"1992-093EF","OBJECT_NAME":"SL-16 DEB","NORAD_CAT_ID":"22438","OBJECT_TYPE":"DEBRIS","PERIOD":"96.653","INCLINATION":"71.3260","ECCENTRICITY":"0.00305940","MEAN_MOTION":"14.89868974","TLE_LINE1":"1 22438U 92093EF  21271.11851431  .00010361  00000-0  10730-2 0  9993","TLE_LINE2":"2 22438  71.3260 144.3595 0030594 213.4385 304.3949 14.89868974503103"},{"OBJECT_ID":"1992-093EJ","OBJECT_NAME":"SL-16 DEB","NORAD_CAT_ID":"22441","OBJECT_TYPE":"DEBRIS","PERIOD":"102.684","INCLINATION":"71.1947","ECCENTRICITY":"0.00855060","MEAN_MOTION":"14.02366987","TLE_LINE1":"1 22441U 92093EJ  21272.15623294 -.00000050  00000-0 -37705-5 0  9996","TLE_LINE2":"2 22441  71.1947 181.5330 0085506  26.1983  89.2303 14.02366987468580"},{"OBJECT_ID":"1992-093EK","OBJECT_NAME":"SL-16 DEB","NORAD_CAT_ID":"22442","OBJECT_TYPE":"DEBRIS","PERIOD":"101.238","INCLINATION":"71.1062","ECCENTRICITY":"0.01390520","MEAN_MOTION":"14.22395307","TLE_LINE1":"1 22442U 92093EK  21271.29145897  .00001151  00000-0  48793-3 0  9997","TLE_LINE2":"2 22442  71.1062 235.5934 0139052 256.9390 101.6185 14.22395307472425"},{"OBJECT_ID":"1992-093EL","OBJECT_NAME":"SL-16 DEB","NORAD_CAT_ID":"22443","OBJECT_TYPE":"DEBRIS","PERIOD":"100.169","INCLINATION":"71.0986","ECCENTRICITY":"0.00678300","MEAN_MOTION":"14.37565272","TLE_LINE1":"1 22443U 92093EL  21271.46349656  .00001903  00000-0  63371-3 0  9990","TLE_LINE2":"2 22443  71.0986 297.7121 0067830 180.1310 179.9820 14.37565272481107"},{"OBJECT_ID":"1992-093EM","OBJECT_NAME":"SL-16 DEB","NORAD_CAT_ID":"22444","OBJECT_TYPE":"DEBRIS","PERIOD":"102.411","INCLINATION":"71.3214","ECCENTRICITY":"0.00785890","MEAN_MOTION":"14.06105815","TLE_LINE1":"1 22444U 92093EM  21272.21493208  .00000005  00000-0  28795-4 0  9992","TLE_LINE2":"2 22444  71.3214 180.8480 0078589  48.7931 103.5117 14.06105815470486"},{"OBJECT_ID":"1992-093EN","OBJECT_NAME":"SL-16 DEB","NORAD_CAT_ID":"22445","OBJECT_TYPE":"DEBRIS","PERIOD":"101.983","INCLINATION":"71.2650","ECCENTRICITY":"0.00821530","MEAN_MOTION":"14.12003342","TLE_LINE1":"1 22445U 92093EN  21271.49226101 -.00000101  00000-0 -29330-4 0  9993","TLE_LINE2":"2 22445  71.2650 320.7353 0082153   2.2584 357.8893 14.12003342474955"},{"OBJECT_ID":"1992-093EQ","OBJECT_NAME":"SL-16 DEB","NORAD_CAT_ID":"22451","OBJECT_TYPE":"DEBRIS","PERIOD":"103.333","INCLINATION":"71.1412","ECCENTRICITY":"0.01331280","MEAN_MOTION":"13.93557325","TLE_LINE1":"1 22451U 92093EQ  21271.50531262  .00000033  00000-0  54816-4 0  9998","TLE_LINE2":"2 22451  71.1412   0.7569 0133128 226.5374 145.5584 13.93557325459638"},{"OBJECT_ID":"1992-093ES","OBJECT_NAME":"SL-16 DEB","NORAD_CAT_ID":"22453","OBJECT_TYPE":"DEBRIS","PERIOD":"103.910","INCLINATION":"70.8077","ECCENTRICITY":"0.01734380","MEAN_MOTION":"13.85816123","TLE_LINE1":"1 22453U 92093ES  21272.33059413  .00000109  00000-0  11948-3 0  9997","TLE_LINE2":"2 22453  70.8077  24.1081 0173438  12.1459  19.0559 13.85816123448600"},{"OBJECT_ID":"1992-093ET","OBJECT_NAME":"SL-16 DEB","NORAD_CAT_ID":"22454","OBJECT_TYPE":"DEBRIS","PERIOD":"102.971","INCLINATION":"70.9202","ECCENTRICITY":"0.01064720","MEAN_MOTION":"13.98447682","TLE_LINE1":"1 22454U 92093ET  21271.60565012  .00000091  00000-0  91432-4 0  9991","TLE_LINE2":"2 22454  70.9202 344.9948 0106472 179.4239 180.7018 13.98447682464028"},{"OBJECT_ID":"1992-093EU","OBJECT_NAME":"SL-16 DEB","NORAD_CAT_ID":"22455","OBJECT_TYPE":"DEBRIS","PERIOD":"101.226","INCLINATION":"70.8698","ECCENTRICITY":"0.01162650","MEAN_MOTION":"14.22562816","TLE_LINE1":"1 22455U 92093EU  21272.05195139  .00002046  00000-0  87451-3 0  9998","TLE_LINE2":"2 22455  70.8698 135.6484 0116265  98.0227  49.0669 14.22562816468973"},{"OBJECT_ID":"1992-093EV","OBJECT_NAME":"SL-16 DEB","NORAD_CAT_ID":"22456","OBJECT_TYPE":"DEBRIS","PERIOD":"101.305","INCLINATION":"71.2518","ECCENTRICITY":"0.01232210","MEAN_MOTION":"14.21449929","TLE_LINE1":"1 22456U 92093EV  21271.38309459  .00001685  00000-0  73305-3 0  9997","TLE_LINE2":"2 22456  71.2518 240.9614 0123221 240.5934 243.4584 14.21449929467089"},{"OBJECT_ID":"1992-093EX","OBJECT_NAME":"SL-16 DEB","NORAD_CAT_ID":"22458","OBJECT_TYPE":"DEBRIS","PERIOD":"102.744","INCLINATION":"70.8523","ECCENTRICITY":"0.00753990","MEAN_MOTION":"14.01541325","TLE_LINE1":"1 22458U 92093EX  21272.43668657  .00000056  00000-0  66932-4 0  9994","TLE_LINE2":"2 22458  70.8523 146.0953 0075399 241.3894 291.7216 14.01541325467764"},{"OBJECT_ID":"1992-093EY","OBJECT_NAME":"SL-16 DEB","NORAD_CAT_ID":"22459","OBJECT_TYPE":"DEBRIS","PERIOD":"99.737","INCLINATION":"71.1794","ECCENTRICITY":"0.00811320","MEAN_MOTION":"14.43798112","TLE_LINE1":"1 22459U 92093EY  21271.38385792  .00002334  00000-0  67309-3 0  9993","TLE_LINE2":"2 22459  71.1794  13.3006 0081132   1.8286  62.5932 14.43798112481815"},{"OBJECT_ID":"1992-093FH","OBJECT_NAME":"SL-16 DEB","NORAD_CAT_ID":"22468","OBJECT_TYPE":"DEBRIS","PERIOD":"100.313","INCLINATION":"71.1628","ECCENTRICITY":"0.01026800","MEAN_MOTION":"14.35512214","TLE_LINE1":"1 22468U 92093FH  21271.40404165  .00002661  00000-0  88714-3 0  9998","TLE_LINE2":"2 22468  71.1628 280.7437 0102680 260.8273  98.1235 14.35512214473443"},{"OBJECT_ID":"1992-093FL","OBJECT_NAME":"SL-16 DEB","NORAD_CAT_ID":"22471","OBJECT_TYPE":"DEBRIS","PERIOD":"98.830","INCLINATION":"71.1315","ECCENTRICITY":"0.00586560","MEAN_MOTION":"14.57053288","TLE_LINE1":"1 22471U 92093FL  21271.33459774  .00002154  00000-0  47932-3 0  9994","TLE_LINE2":"2 22471  71.1315 332.8390 0058656  93.3919 351.2484 14.57053288491248"},{"OBJECT_ID":"1992-093FN","OBJECT_NAME":"SL-16 DEB","NORAD_CAT_ID":"22473","OBJECT_TYPE":"DEBRIS","PERIOD":"99.888","INCLINATION":"71.3400","ECCENTRICITY":"0.00855890","MEAN_MOTION":"14.41620406","TLE_LINE1":"1 22473U 92093FN  21271.43531670  .00001935  00000-0  58337-3 0  9990","TLE_LINE2":"2 22473  71.3400 302.8681 0085589 193.3138 166.5743 14.41620406477644"},{"OBJECT_ID":"1992-093FP","OBJECT_NAME":"SL-16 DEB","NORAD_CAT_ID":"22474","OBJECT_TYPE":"DEBRIS","PERIOD":"103.009","INCLINATION":"71.3049","ECCENTRICITY":"0.01787190","MEAN_MOTION":"13.97935390","TLE_LINE1":"1 22474U 92093FP  21272.13985027  .00000897  00000-0  57962-3 0  9997","TLE_LINE2":"2 22474  71.3049 169.3895 0178719 293.6544  64.5901 13.97935390448620"},{"OBJECT_ID":"1992-093FQ","OBJECT_NAME":"SL-16 DEB","NORAD_CAT_ID":"22475","OBJECT_TYPE":"DEBRIS","PERIOD":"97.797","INCLINATION":"71.2911","ECCENTRICITY":"0.00332560","MEAN_MOTION":"14.72443310","TLE_LINE1":"1 22475U 92093FQ  21272.16382177  .00003298  00000-0  52454-3 0  9997","TLE_LINE2":"2 22475  71.2911 298.8854 0033256  53.6319 306.7896 14.72443310508116"},{"OBJECT_ID":"1992-093FR","OBJECT_NAME":"SL-16 DEB","NORAD_CAT_ID":"22476","OBJECT_TYPE":"DEBRIS","PERIOD":"108.980","INCLINATION":"71.5489","ECCENTRICITY":"0.04799000","MEAN_MOTION":"13.21339305","TLE_LINE1":"1 22476U 92093FR  21270.59368004  .00000444  00000-0  63699-3 0  9999","TLE_LINE2":"2 22476  71.5489 131.6239 0479900 215.1043 141.7527 13.21339305375076"}]